EUTELSAT 3B             
1 39773U 14030A   20070.36611714  .00000002  00000-0  00000+0 0  9996
2 39773   0.0830  48.4095 0001134 164.4492  90.5200  1.00272570 21251